{
  "type": "FeatureCollection",
  "features": [
    {
      "type": "Feature",
      "properties": {
        "norad_id": 41599,
        "name": "CARTOSAT-2C",
        "group": "resource",
        "lat": 13.573752136889096,
        "lon": 51.81414266801891,
        "alt_km": 502.2396753160401,
        "timestamp": "2025-12-22T11:33:20.086761+00:00",
        "meta_object_name": "CARTOSAT-2C",
        "meta_object_id": "2016-040A",
        "meta_epoch": "2025-12-21T18:06:24.688224",
        "meta_mean_motion": 15.19188008,
        "meta_eccentricity": 0.0011021,
        "meta_inclination": 97.4756,
        "meta_ra_of_asc_node": 52.9115,
        "meta_arg_of_pericenter": 34.9019,
        "meta_mean_anomaly": 325.2936,
        "meta_ephemeris_type": 0,
        "meta_classification_type": "U",
        "meta_norad_cat_id": 41599,
        "meta_element_set_no": 999,
        "meta_rev_at_epoch": 52677,
        "meta_bstar": 0.00012803,
        "meta_mean_motion_dot": 2.628e-05,
        "meta_mean_motion_ddot": 0,
        "tle_line1": "1 41599U 16040A   25355.75445241  .00002628  00000+0  12803-3 0  9995",
        "tle_line2": "2 41599  97.4756  52.9115 0011021  34.9019 325.2936 15.19188008526770"
      },
      "geometry": {
        "type": "Point",
        "coordinates": [
          51.81414266801891,
          13.573752136889096
        ]
      }
    },
    {
      "type": "Feature",
      "properties": {
        "norad_id": 41601,
        "name": "SKYSAT-C1",
        "group": "resource",
        "lat": -0.3720594614807059,
        "lon": -147.09959765645368,
        "alt_km": 471.5883140821679,
        "timestamp": "2025-12-22T11:33:20.086771+00:00",
        "meta_object_name": "SKYSAT-C1",
        "meta_object_id": "2016-040C",
        "meta_epoch": "2025-12-22T01:22:14.024064",
        "meta_mean_motion": 15.3274689,
        "meta_eccentricity": 0.0001289,
        "meta_inclination": 96.9807,
        "meta_ra_of_asc_node": 32.5455,
        "meta_arg_of_pericenter": 340.6594,
        "meta_mean_anomaly": 19.46,
        "meta_ephemeris_type": 0,
        "meta_classification_type": "U",
        "meta_norad_cat_id": 41601,
        "meta_element_set_no": 999,
        "meta_rev_at_epoch": 53070,
        "meta_bstar": 0.00031058,
        "meta_mean_motion_dot": 9.752e-05,
        "meta_mean_motion_ddot": 0,
        "tle_line1": "1 41601U 16040C   25356.05710676  .00009752  00000+0  31058-3 0  9998",
        "tle_line2": "2 41601  96.9807  32.5455 0001289 340.6594  19.4600 15.32746890530708"
      },
      "geometry": {
        "type": "Point",
        "coordinates": [
          -147.09959765645368,
          -0.3720594614807059
        ]
      }
    },
    {
      "type": "Feature",
      "properties": {
        "norad_id": 41603,
        "name": "LAPAN-A3",
        "group": "resource",
        "lat": -72.46643018535048,
        "lon": 17.06866681513356,
        "alt_km": 472.3172803763173,
        "timestamp": "2025-12-22T11:33:20.086782+00:00",
        "meta_object_name": "LAPAN-A3",
        "meta_object_id": "2016-040E",
        "meta_epoch": "2025-12-22T05:36:20.340864",
        "meta_mean_motion": 15.31624392,
        "meta_eccentricity": 0.0008805,
        "meta_inclination": 97.1427,
        "meta_ra_of_asc_node": 353.4444,
        "meta_arg_of_pericenter": 294.9697,
        "meta_mean_anomaly": 65.063,
        "meta_ephemeris_type": 0,
        "meta_classification_type": "U",
        "meta_norad_cat_id": 41603,
        "meta_element_set_no": 999,
        "meta_rev_at_epoch": 52771,
        "meta_bstar": 0.00014312,
        "meta_mean_motion_dot": 4.3e-05,
        "meta_mean_motion_ddot": 0,
        "tle_line1": "1 41603U 16040E   25356.23356876  .00004300  00000+0  14312-3 0  9996",
        "tle_line2": "2 41603  97.1427 353.4444 0008805 294.9697  65.0630 15.31624392527718"
      },
      "geometry": {
        "type": "Point",
        "coordinates": [
          17.06866681513356,
          -72.46643018535048
        ]
      }
    },
    {
      "type": "Feature",
      "properties": {
        "norad_id": 41604,
        "name": "BIROS",
        "group": "resource",
        "lat": 49.13733587942628,
        "lon": 20.084614160210222,
        "alt_km": 287.991298038949,
        "timestamp": "2025-12-22T11:33:20.086792+00:00",
        "meta_object_name": "BIROS",
        "meta_object_id": "2016-040F",
        "meta_epoch": "2025-12-21T20:16:27.693408",
        "meta_mean_motion": 15.93143853,
        "meta_eccentricity": 0.0003713,
        "meta_inclination": 97.0682,
        "meta_ra_of_asc_node": 27.6655,
        "meta_arg_of_pericenter": 133.3571,
        "meta_mean_anomaly": 226.8015,
        "meta_ephemeris_type": 0,
        "meta_classification_type": "U",
        "meta_norad_cat_id": 41604,
        "meta_element_set_no": 999,
        "meta_rev_at_epoch": 53017,
        "meta_bstar": 0.00065293,
        "meta_mean_motion_dot": 0.00227507,
        "meta_mean_motion_ddot": 2.1446e-05,
        "tle_line1": "1 41604U 16040F   25355.84476497  .00227507  21446-4  65293-3 0  9997",
        "tle_line2": "2 41604  97.0682  27.6655 0003713 133.3571 226.8015 15.93143853530179"
      },
      "geometry": {
        "type": "Point",
        "coordinates": [
          20.084614160210222,
          49.13733587942628
        ]
      }
    },
    {
      "type": "Feature",
      "properties": {
        "norad_id": 41727,
        "name": "GAOFEN-3",
        "group": "resource",
        "lat": 5.334708296567425,
        "lon": -177.29008793112783,
        "alt_km": 753.831872152281,
        "timestamp": "2025-12-22T11:33:20.086802+00:00",
        "meta_object_name": "GAOFEN-3",
        "meta_object_id": "2016-049A",
        "meta_epoch": "2025-12-22T04:05:20.037984",
        "meta_mean_motion": 14.42215807,
        "meta_eccentricity": 0.0001206,
        "meta_inclination": 98.4031,
        "meta_ra_of_asc_node": 1.6127,
        "meta_arg_of_pericenter": 56.722,
        "meta_mean_anomaly": 303.4085,
        "meta_ephemeris_type": 0,
        "meta_classification_type": "U",
        "meta_norad_cat_id": 41727,
        "meta_element_set_no": 999,
        "meta_rev_at_epoch": 49313,
        "meta_bstar": 3.1143e-05,
        "meta_mean_motion_dot": 5.9e-07,
        "meta_mean_motion_ddot": 0,
        "tle_line1": "1 41727U 16049A   25356.17037081  .00000059  00000+0  31143-4 0  9998",
        "tle_line2": "2 41727  98.4031   1.6127 0001206  56.7220 303.4085 14.42215807493133"
      },
      "geometry": {
        "type": "Point",
        "coordinates": [
          -177.29008793112783,
          5.334708296567425
        ]
      }
    },
    {
      "type": "Feature",
      "properties": {
        "norad_id": 41771,
        "name": "SKYSAT-C4",
        "group": "resource",
        "lat": 81.20258558443773,
        "lon": -106.93404647313797,
        "alt_km": 429.93611736011644,
        "timestamp": "2025-12-22T11:33:20.086813+00:00",
        "meta_object_name": "SKYSAT-C4",
        "meta_object_id": "2016-058B",
        "meta_epoch": "2025-12-22T01:48:06.894720",
        "meta_mean_motion": 15.42499501,
        "meta_eccentricity": 0.000231,
        "meta_inclination": 96.936,
        "meta_ra_of_asc_node": 20.8093,
        "meta_arg_of_pericenter": 127.7671,
        "meta_mean_anomaly": 232.3787,
        "meta_ephemeris_type": 0,
        "meta_classification_type": "U",
        "meta_norad_cat_id": 41771,
        "meta_element_set_no": 999,
        "meta_rev_at_epoch": 51811,
        "meta_bstar": 0.00035887,
        "meta_mean_motion_dot": 0.00015486,
        "meta_mean_motion_ddot": 0,
        "tle_line1": "1 41771U 16058B   25356.07507980  .00015486  00000+0  35887-3 0  9994",
        "tle_line2": "2 41771  96.9360  20.8093 0002310 127.7671 232.3787 15.42499501518112"
      },
      "geometry": {
        "type": "Point",
        "coordinates": [
          -106.93404647313797,
          81.20258558443773
        ]
      }
    },
    {
      "type": "Feature",
      "properties": {
        "norad_id": 41772,
        "name": "SKYSAT-C5",
        "group": "resource",
        "lat": 77.36570039556509,
        "lon": 6.183129673812761,
        "alt_km": 459.06119336751,
        "timestamp": "2025-12-22T11:33:20.086823+00:00",
        "meta_object_name": "SKYSAT-C5",
        "meta_object_id": "2016-058C",
        "meta_epoch": "2025-12-22T01:49:00.968160",
        "meta_mean_motion": 15.34032906,
        "meta_eccentricity": 0.0003815,
        "meta_inclination": 97.0741,
        "meta_ra_of_asc_node": 39.4372,
        "meta_arg_of_pericenter": 246.7757,
        "meta_mean_anomaly": 113.3085,
        "meta_ephemeris_type": 0,
        "meta_classification_type": "U",
        "meta_norad_cat_id": 41772,
        "meta_element_set_no": 999,
        "meta_rev_at_epoch": 51659,
        "meta_bstar": 0.00030067,
        "meta_mean_motion_dot": 9.83e-05,
        "meta_mean_motion_ddot": 0,
        "tle_line1": "1 41772U 16058C   25356.07570565  .00009830  00000+0  30067-3 0  9995",
        "tle_line2": "2 41772  97.0741  39.4372 0003815 246.7757 113.3085 15.34032906516594"
      },
      "geometry": {
        "type": "Point",
        "coordinates": [
          6.183129673812761,
          77.36570039556509
        ]
      }
    }
  ]
}